SAUDISAT 2              
1 28371U 04025F   26133.95888337  .00000168  00000+0  48487-4 0  9997
2 28371  98.5510 133.0577 0025584  44.0775 316.2456 14.56662015160761
COSMOS 2407             
1 28380U 04028A   26134.04521683  .00000044  00000+0  29357-4 0  9997
2 28380  82.9584 100.1199 0039027 350.1051  80.0976 13.76331714 95185
COSMOS 2414             
1 28521U 05002A   26134.14942102  .00000057  00000+0  34259-4 0  9992
2 28521  82.9500  69.3904 0041517  67.1613 293.3926 13.87922937 79097
INMARSAT 4-F1           
1 28628U 05009A   26134.06896191  .00000046  00000+0  00000+0 0  9994
2 28628   5.1231  42.6807 0002658  10.9302  21.1704  1.00271521 77337
SJ-7                    
1 28737U 05024A   26134.14977262  .00005329  00000+0  24276-3 0  9994
2 28737  97.7312 163.3488 0017023 146.0240 214.2089 15.21001980142854
CUBESAT XI-V            
1 28895U 05043F   26133.40904681  .00000792  00000+0  13289-3 0  9994
2 28895  98.2946 288.3105 0013121 319.7744  40.2490 14.72536322 96630
HINODE (SOLAR-B)        
1 29479U 06041A   26134.05072750  .00000417  00000+0  80095-4 0  9991
2 29479  98.0563 150.7058 0018380  40.4556 319.8012 14.68571427 49860
SHIJIAN-6 02B (SJ-6 02B)
1 29506U 06046B   26134.22187091  .00000893  00000+0  74089-4 0  9995
2 29506  97.7162 163.4914 0011698 169.8917 190.2545 15.01275459 65646
DMSP 5D-3 F17 (USA 191) 
1 29522U 06050A   26134.15745782  .00000030  00000+0  38094-4 0  9996
2 29522  98.7387 141.4234 0010688 147.3471 212.8365 14.14986986  7610
LAPAN-TUBSAT            
1 29709U 07001A   26134.18089110 -.00000165  00000+0 -12248-4 0  9993
2 29709  98.1346 132.6403 0010921 301.1292  58.8851 14.85913976 46109
HAIYANG-1B              
1 31113U 07010A   26133.95375102  .00000048  00000+0  33999-4 0  9992
2 31113  98.3485 117.1299 0012462 306.5676  53.4360 14.31018217995738
COSMO-SKYMED 2          
1 32376U 07059A   26134.20325409  .00000248  00000+0  37672-4 0  9995
2 32376  97.8885 318.2945 0001460  89.8221 270.3159 14.82156765996962
CARTOSAT-2A             
1 32783U 08021A   26134.15640169  .00000098  00000+0  19900-4 0  9991
2 32783  97.7664 184.0231 0010810 216.4498 143.5979 14.79187551973776
CUTE-1.7+APD II (CO-65) 
1 32785U 08021C   26134.17133164  .00003313  00000+0  21293-3 0  9997
2 32785  97.8259 114.8957 0010083 136.6900 223.5122 15.09113311980064
SEEDS II (CO-66)        
1 32791U 08021J   26133.97786064  .00012151  00000+0  40134-3 0  9999
2 32791  97.7520 130.2774 0004981  82.4291 277.7515 15.31540490982056
YUBILEINY (RS30)        
1 32953U 08025A   26134.13672112 -.00000008  00000+0 -12559-3 0  9990
2 32953  82.5074  16.6213 0020282  28.0216 332.1951 12.43177818815462
FENGYUN 3A              
1 32958U 08026A   26134.07414402  .00000023  00000+0  31718-4 0  9999
2 32958  98.6873  75.5488 0007860 221.0546 139.0040 14.19563592930563
HUANJING 1A (HJ-1A)     
1 33320U 08041A   26134.18184215  .00000765  00000+0  98077-4 0  9992
2 33320  97.6672 121.3402 0017387 249.1041 110.8312 14.83907335953365
HUANJING 1B (HJ-1B)     
1 33321U 08041B   26134.20325786  .00001043  00000+0  13263-3 0  9999
2 33321  97.6512 124.6341 0034928 296.5091  63.2543 14.83258016953371
SHIJIAN-6 03A (SJ-6 03A)
1 33408U 08053A   26134.14434402  .00002918  00000+0  15193-3 0  9993
2 33408  97.8444 166.2872 0012937 125.4354 234.8088 15.16810155957809
SHIJIAN-6 03B (SJ-6 03B)
1 33409U 08053B   26134.24134885  .00000395  00000+0  33017-4 0  9990
2 33409  97.8607 153.5716 0020255 150.2415 209.9967 15.04209700957649
CHUANGXIN 1-02 (CX-1-02)
1 33434U 08056B   26134.15569567 -.00000139  00000+0 -36811-4 0  9993
2 33434  98.6163 160.7586 0013162 237.8981 122.0924 14.30145290913750
