OBJECT_NAME,OBJECT_ID,EPOCH,MEAN_MOTION,ECCENTRICITY,INCLINATION,RA_OF_ASC_NODE,ARG_OF_PERICENTER,MEAN_ANOMALY,EPHEMERIS_TYPE,CLASSIFICATION_TYPE,NORAD_CAT_ID,ELEMENT_SET_NO,REV_AT_EPOCH,BSTAR,MEAN_MOTION_DOT,MEAN_MOTION_DDOT
SAUDISAT 2,2004-025F,2026-05-13T23:00:47.523168,14.56662015,.0025584,98.5510,133.0577,44.0775,316.2456,0,U,28371,999,16076,.48487E-4,.168E-5,0
COSMOS 2407,2004-028A,2026-05-14T01:05:06.734112,13.76331714,.0039027,82.9584,100.1199,350.1051,80.0976,0,U,28380,999,9518,.29357E-4,.44E-6,0
COSMOS 2414,2005-002A,2026-05-14T03:35:09.976128,13.87922937,.0041517,82.9500,69.3904,67.1613,293.3926,0,U,28521,999,7909,.34259E-4,.57E-6,0
INMARSAT 4-F1,2005-009A,2026-05-14T01:39:18.309024,1.00271521,.0002658,5.1231,42.6807,10.9302,21.1704,0,U,28628,999,7733,0,.46E-6,0
SJ-7,2005-024A,2026-05-14T03:35:40.354368,15.21001980,.0017023,97.7312,163.3488,146.0240,214.2089,0,U,28737,999,14285,.24276E-3,.5329E-4,0
CUBESAT XI-V,2005-043F,2026-05-13T09:49:01.644384,14.72536322,.00131215,98.2946,288.3105,319.7744,40.2490,0,U,28895,999,9663,.13288979E-3,.792E-5,0
HINODE (SOLAR-B),2006-041A,2026-05-14T01:13:02.856000,14.68571427,.001838,98.0563,150.7058,40.4556,319.8012,0,U,29479,999,4986,.80095E-4,.417E-5,0
SHIJIAN-6 02B (SJ-6 02B),2006-046B,2026-05-14T05:19:29.646624,15.01275459,.0011698,97.7162,163.4914,169.8917,190.2545,0,U,29506,999,6564,.74089E-4,.893E-5,0
DMSP 5D-3 F17 (USA 191),2006-050A,2026-05-14T03:46:44.355648,14.14986986,.0010688,98.7387,141.4234,147.3471,212.8365,0,U,29522,999,761,.38094E-4,.3E-6,0
LAPAN-TUBSAT,2007-001A,2026-05-14T04:20:28.991040,14.85913976,.0010921,98.1346,132.6403,301.1292,58.8851,0,U,29709,999,4610,-.12248E-4,-.165E-5,0
HAIYANG-1B,2007-010A,2026-05-13T22:53:24.088128,14.31018217,.0012462,98.3485,117.1299,306.5676,53.4360,0,U,31113,999,99573,.33999E-4,.48E-6,0
COSMO-SKYMED 2,2007-059A,2026-05-14T04:52:41.153376,14.82156765,.000146,97.8885,318.2945,89.8221,270.3159,0,U,32376,999,99696,.37672E-4,.248E-5,0
CARTOSAT-2A,2008-021A,2026-05-14T03:45:13.106016,14.79187551,.001081,97.7664,184.0231,216.4498,143.5979,0,U,32783,999,97377,.199E-4,.98E-6,0
CUTE-1.7+APD II (CO-65),2008-021C,2026-05-14T04:06:43.053696,15.09113311,.0010083,97.8259,114.8957,136.6900,223.5122,0,U,32785,999,98006,.21293E-3,.3313E-4,0
SEEDS II (CO-66),2008-021J,2026-05-13T23:28:07.159296,15.31540490,.0004981,97.7520,130.2774,82.4291,277.7515,0,U,32791,999,98205,.40134E-3,.12151E-3,0
YUBILEINY (RS30),2008-025A,2026-05-14T03:16:52.704768,12.43177818,.0020282,82.5074,16.6213,28.0216,332.1951,0,U,32953,999,81546,-.12559E-3,-.8E-7,0
FENGYUN 3A,2008-026A,2026-05-14T01:46:46.043328,14.19563592,.000786,98.6873,75.5488,221.0546,139.0040,0,U,32958,999,93056,.31718E-4,.23E-6,0
HUANJING 1A (HJ-1A),2008-041A,2026-05-14T04:21:51.161760,14.83907335,.0017387,97.6672,121.3402,249.1041,110.8312,0,U,33320,999,95336,.98077E-4,.765E-5,0
HUANJING 1B (HJ-1B),2008-041B,2026-05-14T04:52:41.479104,14.83258016,.0034928,97.6512,124.6341,296.5091,63.2543,0,U,33321,999,95337,.13263E-3,.1043E-4,0
SHIJIAN-6 03A (SJ-6 03A),2008-053A,2026-05-14T03:27:51.323328,15.16810155,.0012937,97.8444,166.2872,125.4354,234.8088,0,U,33408,999,95780,.15193E-3,.2918E-4,0
SHIJIAN-6 03B (SJ-6 03B),2008-053B,2026-05-14T05:47:32.540640,15.04209700,.0020255,97.8607,153.5716,150.2415,209.9967,0,U,33409,999,95764,.33017E-4,.395E-5,0
CHUANGXIN 1-02 (CX-1-02),2008-056B,2026-05-14T03:44:12.105888,14.30145290,.0013162,98.6163,160.7586,237.8981,122.0924,0,U,33434,999,91375,-.36811E-4,-.139E-5,0
